TRANSPORTER-10 OBJECT AD
1 59125U 24043AD  26068.86032889  .00011954  00000+0  36311-3 0  9997
2 59125  97.5470 207.3753 0008984 221.4908 138.5653 15.34189901112026
STARLINK-34528          
1 64479U 25133H   26068.45068362  .00007932  00000+0  27991-3 0  9991
2 64479  53.1600 117.7817 0001309  68.2412 291.8728 15.30170743 41132
